{
  "norad_id": 61222,
  "name": "KINEIS-3E",
  "history": [
    {
      "epoch": "2026-03-28T22:07:59.020896Z",
      "apogee_km": 654.8636442956031,
      "perigee_km": 652.7768406643263,
      "latitude_deg": -2.1905351251608574e-05,
      "longitude_deg": 20.366374209344585,
      "height_km": 656.8521252131778,
      "semi_major_axis_km": 7031.957242479964,
      "eccentricity": 0.00014838,
      "inclination_deg": 98.0345,
      "raan_deg": 178.698,
      "arg_perigee_deg": 91.5005,
      "mean_anomaly_deg": 268.6372,
      "mean_motion_rev_day": 14.72273279
    },
    {
      "epoch": "2026-03-29T04:39:27.039744Z",
      "apogee_km": 654.8368006789296,
      "perigee_km": 652.7919092249094,
      "latitude_deg": 1.6073731284368967e-05,
      "longitude_deg": -77.49972588150754,
      "height_km": 656.805273868571,
      "semi_major_axis_km": 7031.951354951919,
      "eccentricity": 0.0001454,
      "inclination_deg": 98.0345,
      "raan_deg": 178.9666,
      "arg_perigee_deg": 89.2334,
      "mean_anomaly_deg": 270.904,
      "mean_motion_rev_day": 14.72275128
    },
    {
      "epoch": "2026-03-30T03:29:34.901376Z",
      "apogee_km": 654.81482045951,
      "perigee_km": 652.769935396409,
      "latitude_deg": 5.282362563918986e-05,
      "longitude_deg": -60.02950862717426,
      "height_km": 656.7285714875349,
      "semi_major_axis_km": 7031.929377927959,
      "eccentricity": 0.0001454,
      "inclination_deg": 98.0344,
      "raan_deg": 179.9074,
      "arg_perigee_deg": 86.1638,
      "mean_anomaly_deg": 273.9736,
      "mean_motion_rev_day": 14.7228203
    },
    {
      "epoch": "2026-03-30T05:07:26.876928Z",
      "apogee_km": 654.8162662621089,
      "perigee_km": 652.7661779082409,
      "latitude_deg": 4.192943303706805e-06,
      "longitude_deg": -84.4958535954783,
      "height_km": 656.7332066324077,
      "semi_major_axis_km": 7031.928222085175,
      "eccentricity": 0.00014577,
      "inclination_deg": 98.0341,
      "raan_deg": 179.9746,
      "arg_perigee_deg": 86.4973,
      "mean_anomaly_deg": 273.6401,
      "mean_motion_rev_day": 14.72282393
    },
    {
      "epoch": "2026-03-30T11:38:54.768768Z",
      "apogee_km": 654.8401151431299,
      "perigee_km": 652.7330695579176,
      "latitude_deg": -7.356157312042728e-05,
      "longitude_deg": 177.63899345571346,
      "height_km": 656.7432077914731,
      "semi_major_axis_km": 7031.923592350523,
      "eccentricity": 0.00014982,
      "inclination_deg": 98.0339,
      "raan_deg": 180.2436,
      "arg_perigee_deg": 87.3915,
      "mean_anomaly_deg": 272.7463,
      "mean_motion_rev_day": 14.72283847
    },
    {
      "epoch": "2026-03-30T18:10:22.638144Z",
      "apogee_km": 654.8329948115406,
      "perigee_km": 652.7343884003385,
      "latitude_deg": 4.725597823440324e-06,
      "longitude_deg": 79.77351245783237,
      "height_km": 656.7288978575027,
      "semi_major_axis_km": 7031.920691605939,
      "eccentricity": 0.00014922,
      "inclination_deg": 98.0338,
      "raan_deg": 180.5122,
      "arg_perigee_deg": 86.7571,
      "mean_anomaly_deg": 273.3807,
      "mean_motion_rev_day": 14.72284758
    },
    {
      "epoch": "2026-03-31T15:22:38.029152Z",
      "apogee_km": 654.7652314612906,
      "perigee_km": 652.7681708101682,
      "latitude_deg": 6.239533538814035e-06,
      "longitude_deg": 121.7115555831154,
      "height_km": 656.7532389662477,
      "semi_major_axis_km": 7031.903701135729,
      "eccentricity": 0.000142,
      "inclination_deg": 98.0346,
      "raan_deg": 181.3852,
      "arg_perigee_deg": 88.9593,
      "mean_anomaly_deg": 271.1777,
      "mean_motion_rev_day": 14.72290094
    },
    {
      "epoch": "2026-04-01T06:03:25.541280Z",
      "apogee_km": 654.815454916039,
      "perigee_km": 652.712916461518,
      "latitude_deg": -4.9876319676581425e-05,
      "longitude_deg": -98.4847835353703,
      "height_km": 656.7414101147453,
      "semi_major_axis_km": 7031.901185688778,
      "eccentricity": 0.0001495,
      "inclination_deg": 98.0339,
      "raan_deg": 181.9897,
      "arg_perigee_deg": 88.5091,
      "mean_anomaly_deg": 271.6287,
      "mean_motion_rev_day": 14.72290884
    },
    {
      "epoch": "2026-04-02T16:18:35.669664Z",
      "apogee_km": 654.7980123506486,
      "perigee_km": 652.671574320344,
      "latitude_deg": -2.2320723403995025e-05,
      "longitude_deg": 107.72699933027968,
      "height_km": 656.6791880708031,
      "semi_major_axis_km": 7031.8717933354965,
      "eccentricity": 0.0001512,
      "inclination_deg": 98.0345,
      "raan_deg": 183.4004,
      "arg_perigee_deg": 86.7574,
      "mean_anomaly_deg": 273.3806,
      "mean_motion_rev_day": 14.72300115
    },
    {
      "epoch": "2026-04-02T16:18:35.670528Z",
      "apogee_km": 654.7981529880853,
      "perigee_km": 652.6714336829082,
      "latitude_deg": -2.460054961649155e-05,
      "longitude_deg": 107.72699604049187,
      "height_km": 656.6791801145465,
      "semi_major_axis_km": 7031.8717933354965,
      "eccentricity": 0.00015122,
      "inclination_deg": 98.0345,
      "raan_deg": 183.4004,
      "arg_perigee_deg": 86.7574,
      "mean_anomaly_deg": 273.3806,
      "mean_motion_rev_day": 14.72300115
    },
    {
      "epoch": "2026-04-03T18:24:25.400160Z",
      "apogee_km": 654.5644754110626,
      "perigee_km": 652.8135507338066,
      "latitude_deg": -5.01136258714213e-05,
      "longitude_deg": 76.27352124011915,
      "height_km": 656.5719306855187,
      "semi_major_axis_km": 7031.826013072434,
      "eccentricity": 0.0001245,
      "inclination_deg": 98.0347,
      "raan_deg": 184.4759,
      "arg_perigee_deg": 81.9839,
      "mean_anomaly_deg": 278.1509,
      "mean_motion_rev_day": 14.72314493
    },
    {
      "epoch": "2026-04-04T12:20:55.672800Z",
      "apogee_km": 654.4786365119435,
      "perigee_km": 652.8803046281819,
      "latitude_deg": -1.5092578498449115e-05,
      "longitude_deg": 167.14793863859327,
      "height_km": 656.6274575745763,
      "semi_major_axis_km": 7031.816470570062,
      "eccentricity": 0.00011365,
      "inclination_deg": 98.0335,
      "raan_deg": 185.2133,
      "arg_perigee_deg": 85.8936,
      "mean_anomaly_deg": 274.2401,
      "mean_motion_rev_day": 14.7231749
    },
    {
      "epoch": "2026-04-05T12:48:52.909344Z",
      "apogee_km": 654.5644528421326,
      "perigee_km": 652.7519373126488,
      "latitude_deg": 2.7061197898713195e-05,
      "longitude_deg": 160.16266693293386,
      "height_km": 656.6144163074813,
      "semi_major_axis_km": 7031.79519507739,
      "eccentricity": 0.00012888,
      "inclination_deg": 98.0341,
      "raan_deg": 186.2213,
      "arg_perigee_deg": 86.9179,
      "mean_anomaly_deg": 273.2176,
      "mean_motion_rev_day": 14.72324172
    },
    {
      "epoch": "2026-04-05T19:20:20.097024Z",
      "apogee_km": 654.5952847233239,
      "perigee_km": 652.7121711663804,
      "latitude_deg": -6.519625517363506e-05,
      "longitude_deg": 62.301157252773606,
      "height_km": 656.6847738630029,
      "semi_major_axis_km": 7031.790727944852,
      "eccentricity": 0.0001339,
      "inclination_deg": 98.0345,
      "raan_deg": 186.491,
      "arg_perigee_deg": 91.5924,
      "mean_anomaly_deg": 268.5436,
      "mean_motion_rev_day": 14.72325575
    },
    {
      "epoch": "2026-04-06T05:07:30.837504Z",
      "apogee_km": 654.547580258949,
      "perigee_km": 652.7411156306625,
      "latitude_deg": -3.642182057354108e-05,
      "longitude_deg": -84.49320941458767,
      "height_km": 656.6176826570262,
      "semi_major_axis_km": 7031.781347944805,
      "eccentricity": 0.00012845,
      "inclination_deg": 98.0342,
      "raan_deg": 186.8933,
      "arg_perigee_deg": 87.9929,
      "mean_anomaly_deg": 272.1425,
      "mean_motion_rev_day": 14.72328521
    },
    {
      "epoch": "2026-04-07T05:35:27.480480Z",
      "apogee_km": 654.5105169143762,
      "perigee_km": 652.7351381931148,
      "latitude_deg": 3.364200289808511e-05,
      "longitude_deg": -91.47670628366595,
      "height_km": 656.5745453734415,
      "semi_major_axis_km": 7031.759827553746,
      "eccentricity": 0.00012624,
      "inclination_deg": 98.0336,
      "raan_deg": 187.9006,
      "arg_perigee_deg": 86.5575,
      "mean_anomaly_deg": 273.5777,
      "mean_motion_rev_day": 14.7233528
    }
  ]
}